{
    "links": {
        "self": "http://www.neowsapp.com/rest/v1/neo/3607961?api_key=iIulBulltgU6a56xZRHN4H3l9WmuAYTsLGpBGhQ2"
    },
    "id": "3607961",
    "neo_reference_id": "3607961",
    "name": "(2012 QZ17)",
    "designation": "2012 QZ17",
    "nasa_jpl_url": "http://ssd.jpl.nasa.gov/sbdb.cgi?sstr=3607961",
    "absolute_magnitude_h": 25.3,
    "estimated_diameter": {
        "kilometers": {
            "estimated_diameter_min": 0.0231502122,
            "estimated_diameter_max": 0.0517654482
        },
        "meters": {
            "estimated_diameter_min": 23.150212221,
            "estimated_diameter_max": 51.7654482198
        },
        "miles": {
            "estimated_diameter_min": 0.0143848705,
            "estimated_diameter_max": 0.0321655483
        },
        "feet": {
            "estimated_diameter_min": 75.9521422633,
            "estimated_diameter_max": 169.8341531374
        }
    },
    "is_potentially_hazardous_asteroid": false,
    "close_approach_data": [
        {
            "close_approach_date": "2012-08-31",
            "close_approach_date_full": "2012-Aug-31 18:32",
            "epoch_date_close_approach": 1346437920000,
            "relative_velocity": {
                "kilometers_per_second": "5.9403007035",
                "kilometers_per_hour": "21385.0825326949",
                "miles_per_hour": "13287.8586437181"
            },
            "miss_distance": {
                "astronomical": "0.1020454555",
                "lunar": "39.6956821895",
                "kilometers": "15265782.785979785",
                "miles": "9485717.564639633"
            },
            "orbiting_body": "Earth"
        }
    ],
    "orbital_data": {
        "orbit_id": "7",
        "orbit_determination_date": "2017-04-06 08:49:09",
        "first_observation_date": "2012-08-25",
        "last_observation_date": "2012-09-25",
        "data_arc_in_days": 31,
        "observations_used": 26,
        "orbit_uncertainty": "7",
        "minimum_orbit_intersection": ".0935218",
        "jupiter_tisserand_invariant": "3.223",
        "epoch_osculation": "2459000.5",
        "eccentricity": ".5610049836027953",
        "semi_major_axis": "2.508650124996505",
        "inclination": "2.324714985178873",
        "ascending_node_longitude": "150.470956345741",
        "orbital_period": "1451.304594927738",
        "perihelion_distance": "1.101284902757691",
        "perihelion_argument": "191.67255748079",
        "aphelion_distance": "3.91601534723532",
        "perihelion_time": "2459078.108711264538",
        "mean_anomaly": "340.7489508729731",
        "mean_motion": ".2480526839494536",
        "equinox": "J2000",
        "orbit_class": {
            "orbit_class_type": "AMO",
            "orbit_class_description": "Near-Earth asteroid orbits similar to that of 1221 Amor",
            "orbit_class_range": "1.017 AU < q (perihelion) < 1.3 AU"
        }
    },
    "is_sentry_object": false
}